start=new Date('2022-02-08T00:00:00.000Z').valueOf();
sats=[{"REV_AT_EPOCH":"1486","LAUNCH_DATE":"2021-11-13","CENTER_NAME":"EARTH","CLASSIFICATION_TYPE":"U","SEMIMAJOR_AXIS":"6784.029","MEAN_ANOMALY":"57.6482","COUNTRY_CODE":"US","OBJECT_ID":"2021-104AL","BSTAR":"-0.01089900000000","TLE_LINE1":"1 49442U 21104AL  22038.91667824 -.00654302  00000-0 -10899-1 0  9999","TIME_SYSTEM":"UTC","REF_FRAME":"TEME","EPHEMERIS_TYPE":"0","PERIAPSIS":"404.869","RCS_SIZE":"LARGE","RA_OF_ASC_NODE":"66.5027","OBJECT_TYPE":"PAYLOAD","MEAN_MOTION_DDOT":"0.0000000000000","DECAY_DATE":null,"INCLINATION":"53.2172","ECCENTRICITY":"0.00015120","GP_ID":"195488428","ELEMENT_SET_NO":"999","NORAD_CAT_ID":"49442","MEAN_MOTION_DOT":"-0.00654302","FILE":"3294568","EPOCH":"2022-02-07T22:00:00.999936","MEAN_ELEMENT_THEORY":"SGP4","OBJECT_NAME":"STARLINK-3098","SITE":"AFETR","TLE_LINE2":"2 49442  53.2172  66.5027 0001512  40.1762  57.6482 15.53714350 14865","APOAPSIS":"406.920","ARG_OF_PERICENTER":"40.1762","PERIOD":"92.681","MEAN_MOTION":"15.53714350"},{"MEAN_ANOMALY":"18.3699","OBJECT_ID":"2021-104AM","COUNTRY_CODE":"US","BSTAR":"-0.01050500000000","TLE_LINE1":"1 49443U 21104AM  22038.58334491 -.00655206  00000-0 -10505-1 0  9992","REV_AT_EPOCH":"368","LAUNCH_DATE":"2021-11-13","CLASSIFICATION_TYPE":"U","CENTER_NAME":"EARTH","SEMIMAJOR_AXIS":"6780.994","RA_OF_ASC_NODE":"68.1004","TIME_SYSTEM":"UTC","REF_FRAME":"TEME","EPHEMERIS_TYPE":"0","PERIAPSIS":"401.944","RCS_SIZE":"LARGE","ECCENTRICITY":"0.00013500","GP_ID":"195481953","ELEMENT_SET_NO":"999","NORAD_CAT_ID":"49443","MEAN_MOTION_DOT":"-0.00655206","FILE":"3294379","EPOCH":"2022-02-07T14:00:01.000224","OBJECT_TYPE":"PAYLOAD","DECAY_DATE":null,"MEAN_MOTION_DDOT":"0.0000000000000","INCLINATION":"53.2171","ARG_OF_PERICENTER":"46.0923","PERIOD":"92.619","MEAN_MOTION":"15.54757583","MEAN_ELEMENT_THEORY":"SGP4","OBJECT_NAME":"STARLINK-3136","SITE":"AFETR","TLE_LINE2":"2 49443  53.2171  68.1004 0001350  46.0923  18.3699 15.54757583  3680","APOAPSIS":"403.775"},{"APOAPSIS":"405.146","SITE":"AFETR","TLE_LINE2":"2 49444  53.2171  68.1061 0001397  42.4364 356.1484 15.54297107  3680","OBJECT_NAME":"STARLINK-3126","MEAN_ELEMENT_THEORY":"SGP4","MEAN_MOTION":"15.54297107","PERIOD":"92.646","ARG_OF_PERICENTER":"42.4364","INCLINATION":"53.2171","DECAY_DATE":null,"MEAN_MOTION_DDOT":"0.0000000000000","OBJECT_TYPE":"PAYLOAD","FILE":"3294379","EPOCH":"2022-02-07T14:00:01.000224","MEAN_MOTION_DOT":"-0.00655113","NORAD_CAT_ID":"49444","ELEMENT_SET_NO":"999","GP_ID":"195483204","ECCENTRICITY":"0.00013970","RCS_SIZE":"LARGE","PERIAPSIS":"403.251","EPHEMERIS_TYPE":"0","REF_FRAME":"TEME","TIME_SYSTEM":"UTC","RA_OF_ASC_NODE":"68.1061","SEMIMAJOR_AXIS":"6782.334","LAUNCH_DATE":"2021-11-13","CENTER_NAME":"EARTH","CLASSIFICATION_TYPE":"U","REV_AT_EPOCH":"368","TLE_LINE1":"1 49444U 21104AN  22038.58334491 -.00655113  00000-0 -10683-1 0  9997","COUNTRY_CODE":"US","BSTAR":"-0.01068300000000","OBJECT_ID":"2021-104AN","MEAN_ANOMALY":"356.1484"},{"OBJECT_NAME":"STARLINK-3122","SITE":"AFETR","TLE_LINE2":"2 49445  53.2172  73.5436 0001805  41.7943 125.8098 15.24012756  3647","APOAPSIS":"494.994","MEAN_ELEMENT_THEORY":"SGP4","ARG_OF_PERICENTER":"41.7943","PERIOD":"94.487","MEAN_MOTION":"15.24012756","MEAN_MOTION_DDOT":"0.0000000000000","DECAY_DATE":null,"INCLINATION":"53.2172","OBJECT_TYPE":"PAYLOAD","NORAD_CAT_ID":"49445","MEAN_MOTION_DOT":"-0.00654184","EPOCH":"2022-02-07T14:00:01.000224","FILE":"3294379","ECCENTRICITY":"0.00018050","GP_ID":"195483455","ELEMENT_SET_NO":"999","EPHEMERIS_TYPE":"0","PERIAPSIS":"492.513","RCS_SIZE":"LARGE","TIME_SYSTEM":"UTC","REF_FRAME":"TEME","RA_OF_ASC_NODE":"73.5436","REV_AT_EPOCH":"364","LAUNCH_DATE":"2021-11-13","CLASSIFICATION_TYPE":"U","CENTER_NAME":"EARTH","SEMIMAJOR_AXIS":"6871.889","MEAN_ANOMALY":"125.8098","BSTAR":"-0.02870900000000","COUNTRY_CODE":"US","OBJECT_ID":"2021-104AP","TLE_LINE1":"1 49445U 21104AP  22038.58334491 -.00654184  00000-0 -28709-1 0  9993"},{"MEAN_ANOMALY":"66.8743","BSTAR":"-0.01081000000000","COUNTRY_CODE":"US","OBJECT_ID":"2021-104AQ","TLE_LINE1":"1 49446U 21104AQ  22038.91667824 -.00654440  00000-0 -10810-1 0  9999","REV_AT_EPOCH":"1486","LAUNCH_DATE":"2021-11-13","CENTER_NAME":"EARTH","CLASSIFICATION_TYPE":"U","SEMIMAJOR_AXIS":"6783.359","RA_OF_ASC_NODE":"66.5001","TIME_SYSTEM":"UTC","REF_FRAME":"TEME","EPHEMERIS_TYPE":"0","PERIAPSIS":"404.242","RCS_SIZE":"LARGE","ECCENTRICITY":"0.00014480","GP_ID":"195487434","ELEMENT_SET_NO":"999","NORAD_CAT_ID":"49446","MEAN_MOTION_DOT":"-0.00654440","EPOCH":"2022-02-07T22:00:00.999936","FILE":"3294528","OBJECT_TYPE":"PAYLOAD","DECAY_DATE":null,"MEAN_MOTION_DDOT":"0.0000000000000","INCLINATION":"53.2172","ARG_OF_PERICENTER":"44.3014","PERIOD":"92.667","MEAN_MOTION":"15.53944727","MEAN_ELEMENT_THEORY":"SGP4","OBJECT_NAME":"STARLINK-3099","TLE_LINE2":"2 49446  53.2172  66.5001 0001448  44.3014  66.8743 15.53944727 14860","SITE":"AFETR","APOAPSIS":"406.206"},{"MEAN_ANOMALY":"155.7915","TLE_LINE1":"1 49447U 21104AR  22038.58334491 -.00654393  00000-0 -28526-1 0  9994","COUNTRY_CODE":"US","BSTAR":"-0.02852600000000","OBJECT_ID":"2021-104AR","LAUNCH_DATE":"2021-11-13","CENTER_NAME":"EARTH","CLASSIFICATION_TYPE":"U","REV_AT_EPOCH":"364","SEMIMAJOR_AXIS":"6871.213","RA_OF_ASC_NODE":"73.5426","PERIAPSIS":"491.853","EPHEMERIS_TYPE":"0","RCS_SIZE":"LARGE","TIME_SYSTEM":"UTC","REF_FRAME":"TEME","NORAD_CAT_ID":"49447","EPOCH":"2022-02-07T14:00:01.000224","FILE":"3294379","MEAN_MOTION_DOT":"-0.00654393","ELEMENT_SET_NO":"999","GP_ID":"195482453","ECCENTRICITY":"0.00017830","DECAY_DATE":null,"MEAN_MOTION_DDOT":"0.0000000000000","INCLINATION":"53.2172","OBJECT_TYPE":"PAYLOAD","ARG_OF_PERICENTER":"42.9797","MEAN_MOTION":"15.24237541","PERIOD":"94.473","OBJECT_NAME":"STARLINK-3115","APOAPSIS":"494.303","SITE":"AFETR","TLE_LINE2":"2 49447  53.2172  73.5426 0001783  42.9797 155.7915 15.24237541  3644","MEAN_ELEMENT_THEORY":"SGP4"},{"ELEMENT_SET_NO":"999","GP_ID":"195482705","ECCENTRICITY":"0.00017160","NORAD_CAT_ID":"49448","EPOCH":"2022-02-07T14:00:01.000224","FILE":"3294379","MEAN_MOTION_DOT":"-0.00654467","OBJECT_TYPE":"PAYLOAD","DECAY_DATE":null,"MEAN_MOTION_DDOT":"0.0000000000000","INCLINATION":"53.2172","ARG_OF_PERICENTER":"44.0289","MEAN_MOTION":"15.23897762","PERIOD":"94.495","MEAN_ELEMENT_THEORY":"SGP4","OBJECT_NAME":"STARLINK-3097","APOAPSIS":"495.279","TLE_LINE2":"2 49448  53.2172  73.5436 0001716  44.0289 108.0526 15.23897762  3657","SITE":"AFETR","MEAN_ANOMALY":"108.0526","TLE_LINE1":"1 49448U 21104AS  22038.58334491 -.00654467  00000-0 -28822-1 0  9996","BSTAR":"-0.02882200000000","COUNTRY_CODE":"US","OBJECT_ID":"2021-104AS","CENTER_NAME":"EARTH","LAUNCH_DATE":"2021-11-13","CLASSIFICATION_TYPE":"U","REV_AT_EPOCH":"365","SEMIMAJOR_AXIS":"6872.234","RA_OF_ASC_NODE":"73.5436","TIME_SYSTEM":"UTC","REF_FRAME":"TEME","PERIAPSIS":"492.920","EPHEMERIS_TYPE":"0","RCS_SIZE":"LARGE"},{"SEMIMAJOR_AXIS":"6872.624","LAUNCH_DATE":"2021-11-13","CLASSIFICATION_TYPE":"U","CENTER_NAME":"EARTH","REV_AT_EPOCH":"1479","TLE_LINE1":"1 49449U 21104AT  22038.91667824 -.00499369  00000-0 -21906-1 0  9997","BSTAR":"-0.02190600000000","COUNTRY_CODE":"US","OBJECT_ID":"2021-104AT","MEAN_ANOMALY":"212.8717","REF_FRAME":"TEME","TIME_SYSTEM":"UTC","RCS_SIZE":"LARGE","PERIAPSIS":"493.169","EPHEMERIS_TYPE":"0","RA_OF_ASC_NODE":"72.0076","OBJECT_TYPE":"PAYLOAD","INCLINATION":"53.2174","DECAY_DATE":null,"MEAN_MOTION_DDOT":"0.0000000000000","ELEMENT_SET_NO":"999","GP_ID":"195487861","ECCENTRICITY":"0.00019210","FILE":"3294528","EPOCH":"2022-02-07T22:00:00.999936","MEAN_MOTION_DOT":"-0.00499369","NORAD_CAT_ID":"49449","MEAN_ELEMENT_THEORY":"SGP4","APOAPSIS":"495.809","SITE":"AFETR","TLE_LINE2":"2 49449  53.2174  72.0076 0001921  31.3453 212.8717 15.23768151 14796","OBJECT_NAME":"STARLINK-3137","MEAN_MOTION":"15.23768151","PERIOD":"94.503","ARG_OF_PERICENTER":"31.3453"},{"MEAN_ELEMENT_THEORY":"SGP4","APOAPSIS":"496.096","TLE_LINE2":"2 49450  53.2173  72.0091 0001851  39.8033 173.1897 15.23656621 14788","SITE":"AFETR","OBJECT_NAME":"STARLINK-3127","MEAN_MOTION":"15.23656621","PERIOD":"94.509","ARG_OF_PERICENTER":"39.8033","OBJECT_TYPE":"PAYLOAD","INCLINATION":"53.2173","DECAY_DATE":null,"MEAN_MOTION_DDOT":"0.0000000000000","GP_ID":"195487433","ELEMENT_SET_NO":"999","ECCENTRICITY":"0.00018510","FILE":"3294528","EPOCH":"2022-02-07T22:00:00.999936","MEAN_MOTION_DOT":"-0.00655743","NORAD_CAT_ID":"49450","REF_FRAME":"TEME","TIME_SYSTEM":"UTC","RCS_SIZE":"LARGE","PERIAPSIS":"493.552","EPHEMERIS_TYPE":"0","RA_OF_ASC_NODE":"72.0091","SEMIMAJOR_AXIS":"6872.959","LAUNCH_DATE":"2021-11-13","CLASSIFICATION_TYPE":"U","CENTER_NAME":"EARTH","REV_AT_EPOCH":"1478","TLE_LINE1":"1 49450U 21104AU  22038.91667824 -.00655743  00000-0 -29091-1 0  9992","COUNTRY_CODE":"US","BSTAR":"-0.02909100000000","OBJECT_ID":"2021-104AU","MEAN_ANOMALY":"173.1897"},{"SEMIMAJOR_AXIS":"6871.922","CLASSIFICATION_TYPE":"U","LAUNCH_DATE":"2021-11-13","CENTER_NAME":"EARTH","REV_AT_EPOCH":"1479","TLE_LINE1":"1 49451U 21104AV  22038.91667824 -.00655202  00000-0 -28767-1 0  9992","BSTAR":"-0.02876700000000","COUNTRY_CODE":"US","OBJECT_ID":"2021-104AV","MEAN_ANOMALY":"216.6788","REF_FRAME":"TEME","TIME_SYSTEM":"UTC","RCS_SIZE":"LARGE","PERIAPSIS":"492.604","EPHEMERIS_TYPE":"0","RA_OF_ASC_NODE":"72.0082","OBJECT_TYPE":"PAYLOAD","INCLINATION":"53.2174","DECAY_DATE":null,"MEAN_MOTION_DDOT":"0.0000000000000","GP_ID":"195487851","ELEMENT_SET_NO":"999","ECCENTRICITY":"0.00017210","FILE":"3294528","EPOCH":"2022-02-07T22:00:00.999936","MEAN_MOTION_DOT":"-0.00655202","NORAD_CAT_ID":"49451","MEAN_ELEMENT_THEORY":"SGP4","APOAPSIS":"494.969","TLE_LINE2":"2 49451  53.2174  72.0082 0001721  42.9951 216.6788 15.24001768 14790","SITE":"AFETR","OBJECT_NAME":"STARLINK-3125","MEAN_MOTION":"15.24001768","PERIOD":"94.488","ARG_OF_PERICENTER":"42.9951"}];
